CTC1_L_00090016-03
1 41772U 26338JC  26070.40832176  .00000000  00000+0  00000-0 0  9998
2 41772  80.0000 180.0000 0000000   0.0000   0.0000 14.79785908    19
CTC1_L_00090016-04
1 41773U 25347MO  26070.40832176  .00000000  00000+0  00000-0 0  9998
2 41773  80.0000 180.0000 0000000   0.0000  90.0000 14.79785908    19
CTC1_L_00090017-01
1 41774U 24827QL  26070.40832176  .00000000  00000+0  00000-0 0  9991
2 41774  80.0000 192.0000 0000000   0.0000 192.0000 14.79785908    16
CTC1_L_00090017-02
1 41775U 25705PM  26070.40832176  .00000000  00000+0  00000-0 0  9998
2 41775  80.0000 192.0000 0000000   0.0000 282.0000 14.79785908    17
CTC1_L_00090017-03
1 41776U 25104XY  26070.40832176  .00000000  00000+0  00000-0 0  9992
2 41776  80.0000 192.0000 0000000   0.0000  12.0000 14.79785908    19
CTC1_L_00090017-04
1 41777U 26223TM  26070.40832176  .00000000  00000+0  00000-0 0  9996
2 41777  80.0000 192.0000 0000000   0.0000 102.0000 14.79785908    10
CTC1_L_00090018-01
1 41778U 25752JH  26070.40832176  .00000000  00000+0  00000-0 0  9993
2 41778  80.0000 204.0000 0000000   0.0000 204.0000 14.79785908    18
CTC1_L_00090018-02
1 41779U 25018AN  26070.40832176  .00000000  00000+0  00000-0 0  9999
2 41779  80.0000 204.0000 0000000   0.0000 294.0000 14.79785908    18
CTC1_L_00090018-03
1 41780U 26951PM  26070.40832176  .00000000  00000+0  00000-0 0  9998
2 41780  80.0000 204.0000 0000000   0.0000  24.0000 14.79785908    11
CTC1_L_00090018-04
1 41781U 25393XP  26070.40832176  .00000000  00000+0  00000-0 0  9998
2 41781  80.0000 204.0000 0000000   0.0000 114.0000 14.79785908    12
CTC1_L_00090019-01
1 41782U 23356FI  26070.40832176  .00000000  00000+0  00000-0 0  9996
2 41782  80.0000 216.0000 0000000   0.0000 216.0000 14.79785908    19
CTC1_L_00090019-02
1 41783U 25807VZ  26070.40832176  .00000000  00000+0  00000-0 0  9990
2 41783  80.0000 216.0000 0000000   0.0000 306.0000 14.79785908    10
CTC1_L_00090019-03
1 41784U 22917XJ  26070.40832176  .00000000  00000+0  00000-0 0  9990
2 41784  80.0000 216.0000 0000000   0.0000  36.0000 14.79785908    11
CTC1_L_00090019-04
1 41785U 24748AU  26070.40832176  .00000000  00000+0  00000-0 0  9995
2 41785  80.0000 216.0000 0000000   0.0000 126.0000 14.79785908    12
CTC1_L_00090020-01
1 41786U 26787MO  26070.40832176  .00000000  00000+0  00000-0 0  9991
2 41786  80.0000 228.0000 0000000   0.0000 228.0000 14.79785908    19
CTC1_L_00090020-02
1 41787U 22309BX  26070.40832176  .00000000  00000+0  00000-0 0  9998
2 41787  80.0000 228.0000 0000000   0.0000 318.0000 14.79785908    10
CTC1_L_00090020-03
1 41788U 23609SD  26070.40832176  .00000000  00000+0  00000-0 0  9993
2 41788  80.0000 228.0000 0000000   0.0000  48.0000 14.79785908    11
CTC1_L_00090020-04
1 41789U 24866XS  26070.40832176  .00000000  00000+0  00000-0 0  9990
2 41789  80.0000 228.0000 0000000   0.0000 138.0000 14.79785908    12
CTC1_L_00090021-01
1 41790U 22949KZ  26070.40832176  .00000000  00000+0  00000-0 0  9992
2 41790  80.0000 240.0000 0000000   0.0000 240.0000 14.79785908    12
CTC1_L_00090021-02
1 41791U 24185OF  26070.40832176  .00000000  00000+0  00000-0 0  9997
2 41791  80.0000 240.0000 0000000   0.0000 330.0000 14.79785908    13
CTC1_L_00090021-03
1 41792U 24857V   26070.40832176  .00000000  00000+0  00000-0 0  9994
2 41792  80.0000 240.0000 0000000   0.0000  60.0000 14.79785908    14
CTC1_L_00090021-04
1 41793U 23371XQ  26070.40832176  .00000000  00000+0  00000-0 0  9995
2 41793  80.0000 240.0000 0000000   0.0000 150.0000 14.79785908    15
CTC1_L_00090022-01
1 41794U 24714Z   26070.40832176  .00000000  00000+0  00000-0 0  9998
2 41794  80.0000 252.0000 0000000   0.0000 252.0000 14.79785908    12
CTC1_L_00090022-02
1 41795U 22507FI  26070.40832176  .00000000  00000+0  00000-0 0  9997
2 41795  80.0000 252.0000 0000000   0.0000 342.0000 14.79785908    13
CTC1_L_00090022-03
1 41796U 22759MA  26070.40832176  .00000000  00000+0  00000-0 0  9997
2 41796  80.0000 252.0000 0000000   0.0000  72.0000 14.79785908    14
CTC1_L_00090022-04
1 41797U 23172WI  26070.40832176  .00000000  00000+0  00000-0 0  9998
2 41797  80.0000 252.0000 0000000   0.0000 162.0000 14.79785908    15
CTC1_L_00090023-01
1 41798U 22923DG  26070.40832176  .00000000  00000+0  00000-0 0  9992
2 41798  80.0000 264.0000 0000000   0.0000 264.0000 14.79785908    12
CTC1_L_00090023-02
1 41799U 24408ZI  26070.40832176  .00000000  00000+0  00000-0 0  9993
2 41799  80.0000 264.0000 0000000   0.0000 354.0000 14.79785908    13
CTC1_L_00090023-03
1 41800U 23044J   26070.40832176  .00000000  00000+0  00000-0 0  9991
2 41800  80.0000 264.0000 0000000   0.0000  84.0000 14.79785908    16
CTC1_L_00090023-04
1 41801U 26285WK  26070.40832176  .00000000  00000+0  00000-0 0  9992
2 41801  80.0000 264.0000 0000000   0.0000 174.0000 14.79785908    17
CTC1_L_00090024-01
1 41802U 26521PO  26070.40832176  .00000000  00000+0  00000-0 0  9996
2 41802  80.0000 276.0000 0000000   0.0000 276.0000 14.79785908    14
CTC1_L_00090024-02
1 41803U 25536GS  26070.40832176  .00000000  00000+0  00000-0 0  9992
2 41803  80.0000 276.0000 0000000   0.0000   6.0000 14.79785908    16
CTC1_L_00090024-03
1 41804U 24886MK  26070.40832176  .00000000  00000+0  00000-0 0  9990
2 41804  80.0000 276.0000 0000000   0.0000  96.0000 14.79785908    16
CTC1_L_00090024-04
1 41805U 22572IA  26070.40832176  .00000000  00000+0  00000-0 0  9991
2 41805  80.0000 276.0000 0000000   0.0000 186.0000 14.79785908    17
CTC1_L_00090025-01
1 41806U 25976DA  26070.40832176  .00000000  00000+0  00000-0 0  9993
2 41806  80.0000 288.0000 0000000   0.0000 288.0000 14.79785908    14
CTC1_L_00090025-02
1 41807U 22223VQ  26070.40832176  .00000000  00000+0  00000-0 0  9996
2 41807  80.0000 288.0000 0000000   0.0000  18.0000 14.79785908    16
CTC1_L_00090025-03
1 41808U 26995PV  26070.40832176  .00000000  00000+0  00000-0 0  9997
2 41808  80.0000 288.0000 0000000   0.0000 108.0000 14.79785908    17
CTC1_L_00090025-04
1 41809U 25282FY  26070.40832176  .00000000  00000+0  00000-0 0  9996
2 41809  80.0000 288.0000 0000000   0.0000 198.0000 14.79785908    17
CTC1_L_00090026-01
1 41810U 23522UX  26070.40832176  .00000000  00000+0  00000-0 0  9993
2 41810  80.0000 300.0000 0000000   0.0000 300.0000 14.79785908    19
CTC1_L_00090026-02
1 41811U 26499FA  26070.40832176  .00000000  00000+0  00000-0 0  9990
2 41811  80.0000 300.0000 0000000   0.0000  30.0000 14.79785908    10
CTC1_L_00090026-03
1 41812U 26077MP  26070.40832176  .00000000  00000+0  00000-0 0  9993
2 41812  80.0000 300.0000 0000000   0.0000 120.0000 14.79785908    11
CTC1_L_00090026-04
1 41813U 23362JU  26070.40832176  .00000000  00000+0  00000-0 0  9998
2 41813  80.0000 300.0000 0000000   0.0000 210.0000 14.79785908    12
CTC1_L_00090027-01
1 41814U 24063QO  26070.40832176  .00000000  00000+0  00000-0 0  9998
2 41814  80.0000 312.0000 0000000   0.0000 312.0000 14.79785908    19
CTC1_L_00090027-02
1 41815U 23405FS  26070.40832176  .00000000  00000+0  00000-0 0  9998
2 41815  80.0000 312.0000 0000000   0.0000  42.0000 14.79785908    10
CTC1_L_00090027-03
1 41816U 22340JP  26070.40832176  .00000000  00000+0  00000-0 0  9996
2 41816  80.0000 312.0000 0000000   0.0000 132.0000 14.79785908    11
CTC1_L_00090027-04
1 41817U 25721ME  26070.40832176  .00000000  00000+0  00000-0 0  9993
2 41817  80.0000 312.0000 0000000   0.0000 222.0000 14.79785908    12
CTC1_L_00090028-01
1 41818U 25028IB  26070.40832176  .00000000  00000+0  00000-0 0  9994
2 41818  80.0000 324.0000 0000000   0.0000 324.0000 14.79785908    19
CTC1_L_00090028-02
1 41819U 25439LX  26070.40832176  .00000000  00000+0  00000-0 0  9991
2 41819  80.0000 324.0000 0000000   0.0000  54.0000 14.79785908    10
CTC1_L_00090028-03
1 41820U 25510PF  26070.40832176  .00000000  00000+0  00000-0 0  9993
2 41820  80.0000 324.0000 0000000   0.0000 144.0000 14.79785908    12
CTC1_L_00090028-04
1 41821U 26161VX  26070.40832176  .00000000  00000+0  00000-0 0  9997
2 41821  80.0000 324.0000 0000000   0.0000 234.0000 14.79785908    13
CTC1_L_00090029-01
1 41822U 25003QG  26070.40832176  .00000000  00000+0  00000-0 0  9992
2 41822  80.0000 336.0000 0000000   0.0000 336.0000 14.79785908    10
CTC1_L_00090029-02
1 41823U 25997JZ  26070.40832176  .00000000  00000+0  00000-0 0  9995
2 41823  80.0000 336.0000 0000000   0.0000  66.0000 14.79785908    11
CTC1_L_00090029-03
1 41824U 23979DC  26070.40832176  .00000000  00000+0  00000-0 0  9994
2 41824  80.0000 336.0000 0000000   0.0000 156.0000 14.79785908    12
CTC1_L_00090029-04
1 41825U 26773QF  26070.40832176  .00000000  00000+0  00000-0 0  9990
2 41825  80.0000 336.0000 0000000   0.0000 246.0000 14.79785908    13
CTC1_L_00090030-01
1 41826U 23011OT  26070.40832176  .00000000  00000+0  00000-0 0  9993
2 41826  80.0000 348.0000 0000000   0.0000 348.0000 14.79785908    10
CTC1_L_00090030-02
1 41827U 24711OG  26070.40832176  .00000000  00000+0  00000-0 0  9992
2 41827  80.0000 348.0000 0000000   0.0000  78.0000 14.79785908    11
CTC1_L_00090030-03
1 41828U 22611XN  26070.40832176  .00000000  00000+0  00000-0 0  9990
2 41828  80.0000 348.0000 0000000   0.0000 168.0000 14.79785908    12
CTC1_L_00090030-04
1 41829U 26922XH  26070.40832176  .00000000  00000+0  00000-0 0  9990
2 41829  80.0000 348.0000 0000000   0.0000 258.0000 14.79785908    13
